{"type": "FeatureCollection", "features": [ {"type": "Feature", "properties": {"norad_id": 29878, "name": "FENGYUN 1C DEB", "group": "fengyun-1c-debris", "lat": -51.237297177231454, "lon": -31.535195319544837, "alt_km": 532.9823242916073, "timestamp": "2025-12-10T11:33:53.657370+00:00", "meta": {"OBJECT_NAME": "FENGYUN 1C DEB", "OBJECT_ID": "1999-025FY", "EPOCH": "2025-12-09T10:39:59.511456", "MEAN_MOTION": 15.08622723, "ECCENTRICITY": 0.00289053, "INCLINATION": 96.9485, "RA_OF_ASC_NODE": 156.2616, "ARG_OF_PERICENTER": 187.2276, "MEAN_ANOMALY": 172.8542, "EPHEMERIS_TYPE": 0, "CLASSIFICATION_TYPE": "U", "NORAD_CAT_ID": 29878, "ELEMENT_SET_NO": 999, "REV_AT_EPOCH": 98598, "BSTAR": 0.010180338, "MEAN_MOTION_DOT": 0.00164232, "MEAN_MOTION_DDOT": 0}, "tle": {"line1": "1 29878U 99025FY  25343.44443879  .00164232  00000+0  10180-1 0  9997", "line2": "2 29878  96.9485 156.2616 0028905 187.2276 172.8542 15.08622723985985"}}, "geometry": {"type": "Point", "coordinates": [-31.535195319544837, -51.237297177231454]}}, {"type": "Feature", "properties": {"norad_id": 29880, "name": "FENGYUN 1C DEB", "group": "fengyun-1c-debris", "lat": -38.48119524072255, "lon": -90.14657524911087, "alt_km": 1061.237186821838, "timestamp": "2025-12-10T11:33:53.657381+00:00", "meta": {"OBJECT_NAME": "FENGYUN 1C DEB", "OBJECT_ID": "1999-025GA", "EPOCH": "2025-12-08T06:57:11.668032", "MEAN_MOTION": 13.93886986, "ECCENTRICITY": 0.02314461, "INCLINATION": 98.1942, "RA_OF_ASC_NODE": 261.3301, "ARG_OF_PERICENTER": 113.9498, "MEAN_ANOMALY": 14.5654, "EPHEMERIS_TYPE": 0, "CLASSIFICATION_TYPE": "U", "NORAD_CAT_ID": 29880, "ELEMENT_SET_NO": 999, "REV_AT_EPOCH": 95500, "BSTAR": 0.0014412467, "MEAN_MOTION_DOT": 2.34e-05, "MEAN_MOTION_DDOT": 0}, "tle": {"line1": "1 29880U 99025GA  25342.28971838  .00002340  00000+0  14412-2 0  9996", "line2": "2 29880  98.1942 261.3301 0231446 113.9498  14.5654 13.93886986955008"}}, "geometry": {"type": "Point", "coordinates": [-90.14657524911087, -38.48119524072255]}}, {"type": "Feature", "properties": {"norad_id": 29881, "name": "FENGYUN 1C DEB", "group": "fengyun-1c-debris", "lat": -28.38271420553588, "lon": -38.33691125595052, "alt_km": 1097.601809675164, "timestamp": "2025-12-10T11:33:53.657391+00:00", "meta": {"OBJECT_NAME": "FENGYUN 1C DEB", "OBJECT_ID": "1999-025GB", "EPOCH": "2025-12-09T21:42:32.650848", "MEAN_MOTION": 13.59595971, "ECCENTRICITY": 0.0292135, "INCLINATION": 98.722, "RA_OF_ASC_NODE": 316.3905, "ARG_OF_PERICENTER": 79.1082, "MEAN_ANOMALY": 311.2345, "EPHEMERIS_TYPE": 0, "CLASSIFICATION_TYPE": "U", "NORAD_CAT_ID": 29881, "ELEMENT_SET_NO": 999, "REV_AT_EPOCH": 93196, "BSTAR": 0.0028498, "MEAN_MOTION_DOT": 2.763e-05, "MEAN_MOTION_DDOT": 0}, "tle": {"line1": "1 29881U 99025GB  25343.90454457  .00002763  00000+0  28498-2 0  9998", "line2": "2 29881  98.7220 316.3905 0292135  79.1082 311.2345 13.59595971931965"}}, "geometry": {"type": "Point", "coordinates": [-38.33691125595052, -28.38271420553588]}}, {"type": "Feature", "properties": {"norad_id": 29884, "name": "FENGYUN 1C DEB", "group": "fengyun-1c-debris", "lat": 1.2485007374083452, "lon": 17.429384816956585, "alt_km": 785.299261078213, "timestamp": "2025-12-10T11:33:53.657401+00:00", "meta": {"OBJECT_NAME": "FENGYUN 1C DEB", "OBJECT_ID": "1999-025GE", "EPOCH": "2025-12-10T01:41:06.516384", "MEAN_MOTION": 14.40279352, "ECCENTRICITY": 0.0044492, "INCLINATION": 99.6031, "RA_OF_ASC_NODE": 17.1795, "ARG_OF_PERICENTER": 144.6191, "MEAN_ANOMALY": 243.8272, "EPHEMERIS_TYPE": 0, "CLASSIFICATION_TYPE": "U", "NORAD_CAT_ID": 29884, "ELEMENT_SET_NO": 999, "REV_AT_EPOCH": 98511, "BSTAR": 0.00088068, "MEAN_MOTION_DOT": 2.77e-05, "MEAN_MOTION_DDOT": 0}, "tle": {"line1": "1 29884U 99025GE  25344.07021431  .00002770  00000+0  88068-3 0  9990", "line2": "2 29884  99.6031  17.1795 0044492 144.6191 243.8272 14.40279352985119"}}, "geometry": {"type": "Point", "coordinates": [17.429384816956585, 1.2485007374083452]}}, {"type": "Feature", "properties": {"norad_id": 29885, "name": "FENGYUN 1C DEB", "group": "fengyun-1c-debris", "lat": 73.89019051450295, "lon": -110.9221927620686, "alt_km": 845.8452092684947, "timestamp": "2025-12-10T11:33:53.657411+00:00", "meta": {"OBJECT_NAME": "FENGYUN 1C DEB", "OBJECT_ID": "1999-025GF", "EPOCH": "2025-12-09T18:21:26.757792", "MEAN_MOTION": 14.13579087, "ECCENTRICITY": 0.0118188, "INCLINATION": 98.3549, "RA_OF_ASC_NODE": 278.9926, "ARG_OF_PERICENTER": 172.8224, "MEAN_ANOMALY": 218.1793, "EPHEMERIS_TYPE": 0, "CLASSIFICATION_TYPE": "U", "NORAD_CAT_ID": 29885, "ELEMENT_SET_NO": 999, "REV_AT_EPOCH": 97415, "BSTAR": 0.00022281, "MEAN_MOTION_DOT": 4.09e-06, "MEAN_MOTION_DDOT": 0}, "tle": {"line1": "1 29885U 99025GF  25343.76489303  .00000409  00000+0  22281-3 0  9994", "line2": "2 29885  98.3549 278.9926 0118188 172.8224 218.1793 14.13579087974150"}}, "geometry": {"type": "Point", "coordinates": [-110.9221927620686, 73.89019051450295]}}, {"type": "Feature", "properties": {"norad_id": 29887, "name": "FENGYUN 1C DEB", "group": "fengyun-1c-debris", "lat": 48.708371266033716, "lon": 56.011029779634455, "alt_km": 623.6897961426412, "timestamp": "2025-12-10T11:33:53.657422+00:00", "meta": {"OBJECT_NAME": "FENGYUN 1C DEB", "OBJECT_ID": "1999-025GH", "EPOCH": "2025-12-10T04:53:04.627392", "MEAN_MOTION": 14.33689667, "ECCENTRICITY": 0.0287184, "INCLINATION": 98.7177, "RA_OF_ASC_NODE": 65.7917, "ARG_OF_PERICENTER": 6.6326, "MEAN_ANOMALY": 44.8788, "EPHEMERIS_TYPE": 0, "CLASSIFICATION_TYPE": "U", "NORAD_CAT_ID": 29887, "ELEMENT_SET_NO": 999, "REV_AT_EPOCH": 97938, "BSTAR": 0.00069546, "MEAN_MOTION_DOT": 3.01e-05, "MEAN_MOTION_DDOT": 0}, "tle": {"line1": "1 29887U 99025GH  25344.20352578  .00003010  00000+0  69546-3 0  9995", "line2": "2 29887  98.7177  65.7917 0287184   6.6326  44.8788 14.33689667979381"}}, "geometry": {"type": "Point", "coordinates": [56.011029779634455, 48.708371266033716]}}, {"type": "Feature", "properties": {"norad_id": 29888, "name": "FENGYUN 1C DEB", "group": "fengyun-1c-debris", "lat": -56.092153671201324, "lon": -16.83824802223104, "alt_km": 1010.9354650756222, "timestamp": "2025-12-10T11:33:53.657432+00:00", "meta": {"OBJECT_NAME": "FENGYUN 1C DEB", "OBJECT_ID": "1999-025GJ", "EPOCH": "2025-12-10T01:59:47.188320", "MEAN_MOTION": 14.19847061, "ECCENTRICITY": 0.0275101, "INCLINATION": 99.1918, "RA_OF_ASC_NODE": 176.6866, "ARG_OF_PERICENTER": 32.9005, "MEAN_ANOMALY": 328.8963, "EPHEMERIS_TYPE": 0, "CLASSIFICATION_TYPE": "U", "NORAD_CAT_ID": 29888, "ELEMENT_SET_NO": 999, "REV_AT_EPOCH": 97466, "BSTAR": 0.0004582, "MEAN_MOTION_DOT": 1.367e-05, "MEAN_MOTION_DDOT": 0}, "tle": {"line1": "1 29888U 99025GJ  25344.08318505  .00001367  00000+0  45820-3 0  9996", "line2": "2 29888  99.1918 176.6866 0275101  32.9005 328.8963 14.19847061974661"}}, "geometry": {"type": "Point", "coordinates": [-16.83824802223104, -56.092153671201324]}}, {"type": "Feature", "properties": {"norad_id": 29889, "name": "FENGYUN 1C DEB", "group": "fengyun-1c-debris", "lat": 11.331323166577636, "lon": 99.82287338180696, "alt_km": 755.2776766279694, "timestamp": "2025-12-10T11:33:53.657442+00:00", "meta": {"OBJECT_NAME": "FENGYUN 1C DEB", "OBJECT_ID": "1999-025GK", "EPOCH": "2025-12-10T03:35:10.154112", "MEAN_MOTION": 14.13506696, "ECCENTRICITY": 0.0154555, "INCLINATION": 99.4768, "RA_OF_ASC_NODE": 101.3889, "ARG_OF_PERICENTER": 46.2671, "MEAN_ANOMALY": 75.5334, "EPHEMERIS_TYPE": 0, "CLASSIFICATION_TYPE": "U", "NORAD_CAT_ID": 29889, "ELEMENT_SET_NO": 999, "REV_AT_EPOCH": 97282, "BSTAR": 0.00039321, "MEAN_MOTION_DOT": 7.81e-06, "MEAN_MOTION_DDOT": 0}, "tle": {"line1": "1 29889U 99025GK  25344.14942308  .00000781  00000+0  39321-3 0  9996", "line2": "2 29889  99.4768 101.3889 0154555  46.2671  75.5334 14.13506696972828"}}, "geometry": {"type": "Point", "coordinates": [99.82287338180696, 11.331323166577636]}}, {"type": "Feature", "properties": {"norad_id": 29890, "name": "FENGYUN 1C DEB", "group": "fengyun-1c-debris", "lat": 20.71629080947458, "lon": -70.54656934473685, "alt_km": 812.9659569566074, "timestamp": "2025-12-10T11:33:53.657452+00:00", "meta": {"OBJECT_NAME": "FENGYUN 1C DEB", "OBJECT_ID": "1999-025GL", "EPOCH": "2025-12-09T19:38:05.866080", "MEAN_MOTION": 14.23020875, "ECCENTRICITY": 0.0014885, "INCLINATION": 99.4675, "RA_OF_ASC_NODE": 105.1222, "ARG_OF_PERICENTER": 81.6446, "MEAN_ANOMALY": 278.6416, "EPHEMERIS_TYPE": 0, "CLASSIFICATION_TYPE": "U", "NORAD_CAT_ID": 29890, "ELEMENT_SET_NO": 999, "REV_AT_EPOCH": 97409, "BSTAR": 0.0014419, "MEAN_MOTION_DOT": 3.203e-05, "MEAN_MOTION_DDOT": 0}, "tle": {"line1": "1 29890U 99025GL  25343.81812345  .00003203  00000+0  14419-2 0  9990", "line2": "2 29890  99.4675 105.1222 0014885  81.6446 278.6416 14.23020875974093"}}, "geometry": {"type": "Point", "coordinates": [-70.54656934473685, 20.71629080947458]}}, {"type": "Feature", "properties": {"norad_id": 29891, "name": "FENGYUN 1C DEB", "group": "fengyun-1c-debris", "lat": -81.21752086667871, "lon": 70.48543212372732, "alt_km": 856.6245970015398, "timestamp": "2025-12-10T11:33:53.657463+00:00", "meta": {"OBJECT_NAME": "FENGYUN 1C DEB", "OBJECT_ID": "1999-025GM", "EPOCH": "2025-12-09T11:03:08.243712", "MEAN_MOTION": 13.9999183, "ECCENTRICITY": 0.00613827, "INCLINATION": 98.7261, "RA_OF_ASC_NODE": 345.7377, "ARG_OF_PERICENTER": 269.5363, "MEAN_ANOMALY": 256.5851, "EPHEMERIS_TYPE": 0, "CLASSIFICATION_TYPE": "U", "NORAD_CAT_ID": 29891, "ELEMENT_SET_NO": 999, "REV_AT_EPOCH": 96442, "BSTAR": 0.0006249864, "MEAN_MOTION_DOT": 8.92e-06, "MEAN_MOTION_DDOT": 0}, "tle": {"line1": "1 29891U 99025GM  25343.46051208  .00000892  00000+0  62499-3 0  9998", "line2": "2 29891  98.7261 345.7377 0061382 269.5363 256.5851 13.99991830964423"}}, "geometry": {"type": "Point", "coordinates": [70.48543212372732, -81.21752086667871]}}]}